SL-3 R/B                
1 13403U 82079B   26084.61209907  .00005452  00000+0  21539-3 0  9999
2 13403  81.1481 174.2777 0025533 112.3283 248.0661 15.25012072380125
SL-14 R/B               
1 13553U 82092B   26084.19210441  .00000425  00000+0  44935-4 0  9999
2 13553  82.5664 126.8978 0018867 248.0519 177.8246 14.86679922331231
SL-3 R/B                
1 13819U 83010B   26084.15894829  .00013701  00000+0  27048-3 0  9995
2 13819  81.1050 343.2767 0016395 359.1120   1.0093 15.46876068360335
SL-3 R/B                
1 14208U 83075B   26084.55592051  .00011534  00000+0  30058-3 0  9992
2 14208  97.6147  89.7387 0021880 167.7665 192.4115 15.38783472332593
COSMOS 1536             
1 14699U 84013A   26084.47877853  .00006443  00000+0  26388-3 0  9990
2 14699  82.5422  92.1488 0013033 220.8522 139.1739 15.24033367275020
SL-14 R/B               
1 14820U 84027B   26084.65202484  .00000515  00000+0  56047-4 0  9993
2 14820  82.5409 230.0399 0016490 281.5821  78.3544 14.85992360250003
SL-8 R/B                
1 15483U 85006B   26084.45140903  .00000325  00000+0  11625-3 0  9993
2 15483  74.0444 232.1428 0017810 145.5024 270.1591 14.37794350156297
SL-12 R/B(2)            
1 15772U 85042D   26084.40167387  .00000151  00000+0  89510-4 0  9990
2 15772  71.1078  54.5308 0032858 102.0861  63.5395 14.21986705116627
SL-14 R/B               
1 15945U 85069B   26084.49732146  .00000508  00000+0  54546-4 0  9998
2 15945  82.5304  10.0725 0019817 136.5027 223.7757 14.86449881175181
SL-16 R/B               
1 16182U 85097B   26084.38693253  .00000103  00000+0  75685-4 0  9994
2 16182  71.0009 107.5060 0009519 241.3156 214.2740 14.16603118 89459
SL-14 R/B               
1 16496U 86006B   26084.40302427  .00000845  00000+0  87224-4 0  9991
2 16496  82.5245 244.9443 0075552 219.7679 139.7986 14.86838000151546
COSMOS 1743             
1 16719U 86034A   26084.36608971  .00040950  00000+0  50875-3 0  9990
2 16719  82.5306  57.3612 0003578 182.1706 177.9536 15.59802629182693
